{
  "links" : {
    "next" : "https://api.nasa.gov/neo/rest/v1/neo/browse?page=1&size=20&api_key=VHdG74iewJt6gyGwpbRICNAoAKGTFjbpH9JqMNJB",
    "self" : "https://api.nasa.gov/neo/rest/v1/neo/browse?page=0&size=20&api_key=VHdG74iewJt6gyGwpbRICNAoAKGTFjbpH9JqMNJB"
  },
  "page" : {
    "size" : 20,
    "total_elements" : 20676,
    "total_pages" : 1034,
    "number" : 0
  },
  "near_earth_objects" : [ {
    "links" : {
      "self" : "https://api.nasa.gov/neo/rest/v1/neo/3092102?api_key=VHdG74iewJt6gyGwpbRICNAoAKGTFjbpH9JqMNJB"
    },
    "neo_reference_id" : "3092102",
    "name" : "(1990 UN)",
    "designation" : "1990 UN",
    "nasa_jpl_url" : "http://ssd.jpl.nasa.gov/sbdb.cgi?sstr=3092102",
    "absolute_magnitude_h" : 23.5,
    "estimated_diameter" : {
      "kilometers" : {
        "estimated_diameter_min" : 0.0530340723,
        "estimated_diameter_max" : 0.1185877909
      },
      "meters" : {
        "estimated_diameter_min" : 53.0340723319,
        "estimated_diameter_max" : 118.5877908577
      },
      "miles" : {
        "estimated_diameter_min" : 0.0329538346,
        "estimated_diameter_max" : 0.0736870142
      },
      "feet" : {
        "estimated_diameter_min" : 173.9963058693,
        "estimated_diameter_max" : 389.0675677576
      }
    },
    "is_potentially_hazardous_asteroid" : false,
    "close_approach_data" : [ {
      "close_approach_date" : "1990-11-07",
      "epoch_date_close_approach" : 657964800000,
      "relative_velocity" : {
        "kilometers_per_second" : "12.0766918678",
        "kilometers_per_hour" : "43476.0907240526",
        "miles_per_hour" : "27014.3520390648"
      },
      "miss_distance" : {
        "astronomical" : "0.0421269898",
        "lunar" : "16.3873996735",
        "kilometers" : "6302108",
        "miles" : "3915948.5"
      },
      "orbiting_body" : "Earth"
    } ],
    "orbital_data" : {
      "orbit_id" : "12",
      "orbit_determination_date" : "2017-04-06 09:18:26",
      "first_observation_date" : "1990-10-22",
      "last_observation_date" : "1990-11-06",
      "data_arc_in_days" : 15,
      "observations_used" : 22,
      "orbit_uncertainty" : "9",
      "minimum_orbit_intersection" : ".0219335",
      "jupiter_tisserand_invariant" : "4.015",
      "epoch_osculation" : "2448191.5",
      "eccentricity" : ".5280628858670434",
      "semi_major_axis" : "1.709865162751567",
      "inclination" : "3.684232740279844",
      "ascending_node_longitude" : "8.467996167120713",
      "orbital_period" : "816.6598842701781",
      "perihelion_distance" : ".8069488304654528",
      "perihelion_argument" : "97.00218625387181",
      "aphelion_distance" : "2.612781495037682",
      "perihelion_time" : "2448245.220949104797",
      "mean_anomaly" : "336.3187318855389",
      "mean_motion" : ".440819987529717",
      "equinox" : "J2000",
      "orbit_class" : {
        "orbit_class_type" : "APO",
        "orbit_class_range" : "a (semi-major axis) > 1.0 AU; q (perihelion) < 1.017 AU",
        "orbit_class_description" : "Near-Earth asteroid orbits which cross the Earth’s orbit similar to that of 1862 Apollo"
      }
    },
    "is_sentry_object" : false
  }, {
    "links" : {
      "self" : "https://api.nasa.gov/neo/rest/v1/neo/3092109?api_key=VHdG74iewJt6gyGwpbRICNAoAKGTFjbpH9JqMNJB"
    },
    "neo_reference_id" : "3092109",
    "name" : "(1991 XA)",
    "designation" : "1991 XA",
    "nasa_jpl_url" : "http://ssd.jpl.nasa.gov/sbdb.cgi?sstr=3092109",
    "absolute_magnitude_h" : 23.7,
    "estimated_diameter" : {
      "kilometers" : {
        "estimated_diameter_min" : 0.0483676488,
        "estimated_diameter_max" : 0.1081533507
      },
      "meters" : {
        "estimated_diameter_min" : 48.3676488219,
        "estimated_diameter_max" : 108.1533506775
      },
      "miles" : {
        "estimated_diameter_min" : 0.0300542543,
        "estimated_diameter_max" : 0.0672033557
      },
      "feet" : {
        "estimated_diameter_min" : 158.6865169607,
        "estimated_diameter_max" : 354.8338390368
      }
    },
    "is_potentially_hazardous_asteroid" : false,
    "close_approach_data" : [ {
      "close_approach_date" : "1991-11-18",
      "epoch_date_close_approach" : 690451200000,
      "relative_velocity" : {
        "kilometers_per_second" : "10.1705332389",
        "kilometers_per_hour" : "36613.9196599518",
        "miles_per_hour" : "22750.4658020406"
      },
      "miss_distance" : {
        "astronomical" : "0.058850331",
        "lunar" : "22.8927783966",
        "kilometers" : "8803884",
        "miles" : "5470480"
      },
      "orbiting_body" : "Earth"
    } ],
    "orbital_data" : {
      "orbit_id" : "12",
      "orbit_determination_date" : "2017-04-06 09:18:23",
      "first_observation_date" : "1991-12-04",
      "last_observation_date" : "1991-12-15",
      "data_arc_in_days" : 11,
      "observations_used" : 8,
      "orbit_uncertainty" : "9",
      "minimum_orbit_intersection" : ".047372",
      "jupiter_tisserand_invariant" : "3.378",
      "epoch_osculation" : "2448597.5",
      "eccentricity" : ".5678585855138963",
      "semi_major_axis" : "2.26641541405382",
      "inclination" : "5.248037986499639",
      "ascending_node_longitude" : "77.2426948442412",
      "orbital_period" : "1246.257255324879",
      "perihelion_distance" : ".9794119628423262",
      "perihelion_argument" : "308.4176762036574",
      "aphelion_distance" : "3.553418865265314",
      "perihelion_time" : "2448556.096792745014",
      "mean_anomaly" : "11.95993407308945",
      "mean_motion" : ".2888649181072602",
      "equinox" : "J2000",
      "orbit_class" : {
        "orbit_class_type" : "APO",
        "orbit_class_range" : "a (semi-major axis) > 1.0 AU; q (perihelion) < 1.017 AU",
        "orbit_class_description" : "Near-Earth asteroid orbits which cross the Earth’s orbit similar to that of 1862 Apollo"
      }
    },
    "is_sentry_object" : false
  }, {
    "links" : {
      "self" : "https://api.nasa.gov/neo/rest/v1/neo/3092112?api_key=VHdG74iewJt6gyGwpbRICNAoAKGTFjbpH9JqMNJB"
    },
    "neo_reference_id" : "3092112",
    "name" : "(1992 YD3)",
    "designation" : "1992 YD3",
    "nasa_jpl_url" : "http://ssd.jpl.nasa.gov/sbdb.cgi?sstr=3092112",
    "absolute_magnitude_h" : 26.4,
    "estimated_diameter" : {
      "kilometers" : {
        "estimated_diameter_min" : 0.0139493823,
        "estimated_diameter_max" : 0.0311917671
      },
      "meters" : {
        "estimated_diameter_min" : 13.9493822934,
        "estimated_diameter_max" : 31.1917670523
      },
      "miles" : {
        "estimated_diameter_min" : 0.0086677416,
        "estimated_diameter_max" : 0.0193816595
      },
      "feet" : {
        "estimated_diameter_min" : 45.7656914036,
        "estimated_diameter_max" : 102.3351970157
      }
    },
    "is_potentially_hazardous_asteroid" : false,
    "close_approach_data" : [ {
      "close_approach_date" : "1992-12-26",
      "epoch_date_close_approach" : 725356800000,
      "relative_velocity" : {
        "kilometers_per_second" : "14.7282012387",
        "kilometers_per_hour" : "53021.5244592995",
        "miles_per_hour" : "32945.5133508353"
      },
      "miss_distance" : {
        "astronomical" : "0.0304501872",
        "lunar" : "11.845123291",
        "kilometers" : "4555283.5",
        "miles" : "2830521.75"
      },
      "orbiting_body" : "Earth"
    } ],
    "orbital_data" : {
      "orbit_id" : "12",
      "orbit_determination_date" : "2017-04-06 09:18:22",
      "first_observation_date" : "1992-12-27",
      "last_observation_date" : "1992-12-27",
      "data_arc_in_days" : null,
      "observations_used" : 14,
      "orbit_uncertainty" : "9",
      "minimum_orbit_intersection" : ".0235471",
      "jupiter_tisserand_invariant" : "5.299",
      "epoch_osculation" : "2448983.5",
      "eccentricity" : ".1365366057199912",
      "semi_major_axis" : "1.165079899568942",
      "inclination" : "27.32843715196251",
      "ascending_node_longitude" : "274.3533024471308",
      "orbital_period" : "459.337594182151",
      "perihelion_distance" : "1.00600384468921",
      "perihelion_argument" : "172.3799277729603",
      "aphelion_distance" : "1.324155954448673",
      "perihelion_time" : "2448976.085511568218",
      "mean_anomaly" : "5.811011049931696",
      "mean_motion" : ".7837372872581414",
      "equinox" : "J2000",
      "orbit_class" : {
        "orbit_class_type" : "APO",
        "orbit_class_range" : "a (semi-major axis) > 1.0 AU; q (perihelion) < 1.017 AU",
        "orbit_class_description" : "Near-Earth asteroid orbits which cross the Earth’s orbit similar to that of 1862 Apollo"
      }
    },
    "is_sentry_object" : false
  } ]
}